MALLIGYONG-1            
1 58400U 23179A   24060.89254117  .00005151  00000+0  23369-3 0  9995
2 58400  97.4188 309.3564 0007834 285.1376  74.8993 15.21229266 15259
